{"type": "FeatureCollection", "features": [ {"type": "Feature", "properties": {"norad_id": 30411, "name": "FENGYUN 1C DEB", "group": "fengyun-1c-debris", "lat": 68.37807044518598, "lon": -125.79300776706508, "alt_km": 791.0055683942473, "timestamp": "2025-12-11T22:43:47.545105+00:00", "meta": {"OBJECT_NAME": "FENGYUN 1C DEB", "OBJECT_ID": "1999-025AEA", "EPOCH": "2025-12-11T07:02:48.647040", "MEAN_MOTION": 14.07635233, "ECCENTRICITY": 0.01226158, "INCLINATION": 98.5811, "RA_OF_ASC_NODE": 255.9779, "ARG_OF_PERICENTER": 110.6601, "MEAN_ANOMALY": 250.7766, "EPHEMERIS_TYPE": 0, "CLASSIFICATION_TYPE": "U", "NORAD_CAT_ID": 30411, "ELEMENT_SET_NO": 999, "REV_AT_EPOCH": 95963, "BSTAR": 0.0024165675, "MEAN_MOTION_DOT": 4.334e-05, "MEAN_MOTION_DDOT": 0}, "tle": {"line1": "1 30411U 99025AEA 25345.29361860  .00004334  00000+0  24166-2 0  9992", "line2": "2 30411  98.5811 255.9779 0122615 110.6601 250.7766 14.07635233959638"}}, "geometry": {"type": "Point", "coordinates": [-125.79300776706508, 68.37807044518598]}}, {"type": "Feature", "properties": {"norad_id": 30413, "name": "FENGYUN 1C DEB", "group": "fengyun-1c-debris", "lat": 32.24237040050634, "lon": -149.21885151456863, "alt_km": 813.615151695758, "timestamp": "2025-12-11T22:43:47.545115+00:00", "meta": {"OBJECT_NAME": "FENGYUN 1C DEB", "OBJECT_ID": "1999-025AEC", "EPOCH": "2025-12-11T14:19:59.704320", "MEAN_MOTION": 14.32514519, "ECCENTRICITY": 0.00454105, "INCLINATION": 102.062, "RA_OF_ASC_NODE": 218.0475, "ARG_OF_PERICENTER": 219.8339, "MEAN_ANOMALY": 169.9312, "EPHEMERIS_TYPE": 0, "CLASSIFICATION_TYPE": "U", "NORAD_CAT_ID": 30413, "ELEMENT_SET_NO": 999, "REV_AT_EPOCH": 97123, "BSTAR": 0.0032057006, "MEAN_MOTION_DOT": 8.73e-05, "MEAN_MOTION_DDOT": 0}, "tle": {"line1": "1 30413U 99025AEC 25345.59721880  .00008730  00000+0  32057-2 0  9991", "line2": "2 30413 102.0620 218.0475 0045410 219.8339 169.9312 14.32514519971238"}}, "geometry": {"type": "Point", "coordinates": [-149.21885151456863, 32.24237040050634]}}, {"type": "Feature", "properties": {"norad_id": 30414, "name": "FENGYUN 1C DEB", "group": "fengyun-1c-debris", "lat": 62.48392326116791, "lon": -18.962704276453103, "alt_km": 760.7001551219673, "timestamp": "2025-12-11T22:43:47.545125+00:00", "meta": {"OBJECT_NAME": "FENGYUN 1C DEB", "OBJECT_ID": "1999-025AED", "EPOCH": "2025-12-11T08:47:29.887296", "MEAN_MOTION": 14.34129956, "ECCENTRICITY": 0.00584973, "INCLINATION": 99.0809, "RA_OF_ASC_NODE": 142.5478, "ARG_OF_PERICENTER": 192.714, "MEAN_ANOMALY": 167.2571, "EPHEMERIS_TYPE": 0, "CLASSIFICATION_TYPE": "U", "NORAD_CAT_ID": 30414, "ELEMENT_SET_NO": 999, "REV_AT_EPOCH": 97067, "BSTAR": 0.0052385009, "MEAN_MOTION_DOT": 0.00014931, "MEAN_MOTION_DDOT": 0}, "tle": {"line1": "1 30414U 99025AED 25345.36631814  .00014931  00000+0  52385-2 0  9990", "line2": "2 30414  99.0809 142.5478 0058497 192.7140 167.2571 14.34129956970679"}}, "geometry": {"type": "Point", "coordinates": [-18.962704276453103, 62.48392326116791]}}, {"type": "Feature", "properties": {"norad_id": 30415, "name": "FENGYUN 1C DEB", "group": "fengyun-1c-debris", "lat": 27.929826663410978, "lon": 41.02046229136361, "alt_km": 1079.0320050723703, "timestamp": "2025-12-11T22:43:47.545135+00:00", "meta": {"OBJECT_NAME": "FENGYUN 1C DEB", "OBJECT_ID": "1999-025AEE", "EPOCH": "2025-12-10T09:50:09.121056", "MEAN_MOTION": 13.68925916, "ECCENTRICITY": 0.02383681, "INCLINATION": 99.6458, "RA_OF_ASC_NODE": 44.6545, "ARG_OF_PERICENTER": 275.2543, "MEAN_ANOMALY": 98.9202, "EPHEMERIS_TYPE": 0, "CLASSIFICATION_TYPE": "U", "NORAD_CAT_ID": 30415, "ELEMENT_SET_NO": 999, "REV_AT_EPOCH": 93846, "BSTAR": 0.0017368588, "MEAN_MOTION_DOT": 1.781e-05, "MEAN_MOTION_DDOT": 0}, "tle": {"line1": "1 30415U 99025AEE 25344.40982779  .00001781  00000+0  17369-2 0  9996", "line2": "2 30415  99.6458  44.6545 0238368 275.2543  98.9202 13.68925916938462"}}, "geometry": {"type": "Point", "coordinates": [41.02046229136361, 27.929826663410978]}}, {"type": "Feature", "properties": {"norad_id": 30416, "name": "FENGYUN 1C DEB", "group": "fengyun-1c-debris", "lat": 45.23863350731489, "lon": 1.3577726802632162, "alt_km": 914.0930205427139, "timestamp": "2025-12-11T22:43:47.545146+00:00", "meta": {"OBJECT_NAME": "FENGYUN 1C DEB", "OBJECT_ID": "1999-025AEF", "EPOCH": "2025-12-11T12:14:13.597440", "MEAN_MOTION": 14.02627849, "ECCENTRICITY": 0.0055448, "INCLINATION": 98.835, "RA_OF_ASC_NODE": 9.9568, "ARG_OF_PERICENTER": 193.2682, "MEAN_ANOMALY": 166.7029, "EPHEMERIS_TYPE": 0, "CLASSIFICATION_TYPE": "U", "NORAD_CAT_ID": 30416, "ELEMENT_SET_NO": 999, "REV_AT_EPOCH": 96607, "BSTAR": 0.00052379716, "MEAN_MOTION_DOT": 7.76e-06, "MEAN_MOTION_DDOT": 0}, "tle": {"line1": "1 30416U 99025AEF 25345.50987960  .00000776  00000+0  52380-3 0  9992", "line2": "2 30416  98.8350   9.9568 0055448 193.2682 166.7029 14.02627849966075"}}, "geometry": {"type": "Point", "coordinates": [1.3577726802632162, 45.23863350731489]}}, {"type": "Feature", "properties": {"norad_id": 30417, "name": "FENGYUN 1C DEB", "group": "fengyun-1c-debris", "lat": -49.41020921487917, "lon": 145.66542564164104, "alt_km": 864.3171968052775, "timestamp": "2025-12-11T22:43:47.545156+00:00", "meta": {"OBJECT_NAME": "FENGYUN 1C DEB", "OBJECT_ID": "1999-025AEG", "EPOCH": "2025-12-11T12:03:06.134112", "MEAN_MOTION": 14.14661109, "ECCENTRICITY": 0.00644032, "INCLINATION": 98.693, "RA_OF_ASC_NODE": 335.5184, "ARG_OF_PERICENTER": 123.4932, "MEAN_ANOMALY": 1.2889, "EPHEMERIS_TYPE": 0, "CLASSIFICATION_TYPE": "U", "NORAD_CAT_ID": 30417, "ELEMENT_SET_NO": 999, "REV_AT_EPOCH": 97371, "BSTAR": 0.00040832116, "MEAN_MOTION_DOT": 7.59e-06, "MEAN_MOTION_DDOT": 0}, "tle": {"line1": "1 30417U 99025AEG 25345.50215433  .00000759  00000+0  40832-3 0  9992", "line2": "2 30417  98.6930 335.5184 0064403 123.4932   1.2889 14.14661109973710"}}, "geometry": {"type": "Point", "coordinates": [145.66542564164104, -49.41020921487917]}}, {"type": "Feature", "properties": {"norad_id": 30418, "name": "FENGYUN 1C DEB", "group": "fengyun-1c-debris", "lat": 8.513870660521839, "lon": -33.01994049558849, "alt_km": 570.7564579456821, "timestamp": "2025-12-11T22:43:47.545166+00:00", "meta": {"OBJECT_NAME": "FENGYUN 1C DEB", "OBJECT_ID": "1999-025AEH", "EPOCH": "2025-12-11T09:09:33.389280", "MEAN_MOTION": 14.84168934, "ECCENTRICITY": 0.01112029, "INCLINATION": 98.8408, "RA_OF_ASC_NODE": 145.0188, "ARG_OF_PERICENTER": 119.9209, "MEAN_ANOMALY": 270.9513, "EPHEMERIS_TYPE": 0, "CLASSIFICATION_TYPE": "U", "NORAD_CAT_ID": 30418, "ELEMENT_SET_NO": 999, "REV_AT_EPOCH": 572, "BSTAR": 0.0016680585, "MEAN_MOTION_DOT": 0.00015525, "MEAN_MOTION_DDOT": 0}, "tle": {"line1": "1 30418U 99025AEH 25345.38163645  .00015525  00000+0  16681-2 0  9997", "line2": "2 30418  98.8408 145.0188 0111202 119.9209 270.9513 14.84168934  5729"}}, "geometry": {"type": "Point", "coordinates": [-33.01994049558849, 8.513870660521839]}}, {"type": "Feature", "properties": {"norad_id": 30419, "name": "FENGYUN 1C DEB", "group": "fengyun-1c-debris", "lat": 74.08605330948852, "lon": 147.51987946221755, "alt_km": 815.3932879235454, "timestamp": "2025-12-11T22:43:47.545177+00:00", "meta": {"OBJECT_NAME": "FENGYUN 1C DEB", "OBJECT_ID": "1999-025AEJ", "EPOCH": "2025-12-10T19:17:42.530208", "MEAN_MOTION": 14.18028815, "ECCENTRICITY": 0.00530669, "INCLINATION": 99.2402, "RA_OF_ASC_NODE": 291.5147, "ARG_OF_PERICENTER": 30.2819, "MEAN_ANOMALY": 359.8464, "EPHEMERIS_TYPE": 0, "CLASSIFICATION_TYPE": "U", "NORAD_CAT_ID": 30419, "ELEMENT_SET_NO": 999, "REV_AT_EPOCH": 97321, "BSTAR": 0.001288421, "MEAN_MOTION_DOT": 2.63e-05, "MEAN_MOTION_DDOT": 0}, "tle": {"line1": "1 30419U 99025AEJ 25344.80396447  .00002630  00000+0  12884-2 0  9996", "line2": "2 30419  99.2402 291.5147 0053066  30.2819 359.8464 14.18028815973216"}}, "geometry": {"type": "Point", "coordinates": [147.51987946221755, 74.08605330948852]}}, {"type": "Feature", "properties": {"norad_id": 30432, "name": "FENGYUN 1C DEB", "group": "fengyun-1c-debris", "lat": 30.606735252545583, "lon": -120.48699760491274, "alt_km": 716.0407232232628, "timestamp": "2025-12-11T22:43:47.545187+00:00", "meta": {"OBJECT_NAME": "FENGYUN 1C DEB", "OBJECT_ID": "1999-025AET", "EPOCH": "2025-12-11T15:55:15.631968", "MEAN_MOTION": 14.4067205, "ECCENTRICITY": 0.00830847, "INCLINATION": 98.8348, "RA_OF_ASC_NODE": 244.4991, "ARG_OF_PERICENTER": 342.1658, "MEAN_ANOMALY": 17.6618, "EPHEMERIS_TYPE": 0, "CLASSIFICATION_TYPE": "U", "NORAD_CAT_ID": 30432, "ELEMENT_SET_NO": 999, "REV_AT_EPOCH": 98719, "BSTAR": 0.0011822588, "MEAN_MOTION_DOT": 3.885e-05, "MEAN_MOTION_DDOT": 0}, "tle": {"line1": "1 30432U 99025AET 25345.66337537  .00003885  00000+0  11823-2 0  9996", "line2": "2 30432  98.8348 244.4991 0083084 342.1658  17.6618 14.40672050987191"}}, "geometry": {"type": "Point", "coordinates": [-120.48699760491274, 30.606735252545583]}}, {"type": "Feature", "properties": {"norad_id": 30434, "name": "FENGYUN 1C DEB", "group": "fengyun-1c-debris", "lat": -34.08453417143383, "lon": -21.055958937450296, "alt_km": 934.6607809480947, "timestamp": "2025-12-11T22:43:47.545197+00:00", "meta": {"OBJECT_NAME": "FENGYUN 1C DEB", "OBJECT_ID": "1999-025AEV", "EPOCH": "2025-12-10T11:22:16.932576", "MEAN_MOTION": 13.90647911, "ECCENTRICITY": 0.01207823, "INCLINATION": 98.9988, "RA_OF_ASC_NODE": 331.362, "ARG_OF_PERICENTER": 237.4216, "MEAN_ANOMALY": 275.0449, "EPHEMERIS_TYPE": 0, "CLASSIFICATION_TYPE": "U", "NORAD_CAT_ID": 30434, "ELEMENT_SET_NO": 999, "REV_AT_EPOCH": 95675, "BSTAR": 0.00047001157, "MEAN_MOTION_DOT": 5.78e-06, "MEAN_MOTION_DDOT": 0}, "tle": {"line1": "1 30434U 99025AEV 25344.47380709  .00000578  00000+0  47001-3 0  9999", "line2": "2 30434  98.9988 331.3620 0120782 237.4216 275.0449 13.90647911956754"}}, "geometry": {"type": "Point", "coordinates": [-21.055958937450296, -34.08453417143383]}}]}